ORBCOMM FM20            
1 25416U 98046D   25190.84843083  .00000404  00000+0  18155-3 0  9990
2 25416  44.9946  73.9495 0001671  25.3752 334.7177 14.37241850407561
ORBCOMM FM16            
1 25417U 98046E   25190.88692697  .00000671  00000+0  26156-3 0  9994
2 25417  44.9944  65.0395 0005299  49.5126 310.6184 14.38957209407748
ORBCOMM FM15            
1 25418U 98046F   25190.79924891  .00000598  00000+0  23965-3 0  9992
2 25418  44.9975  70.6684 0004922  47.4178 312.7085 14.38598384407672
ORBCOMM FM14            
1 25419U 98046G   25189.70050963  .00000637  00000+0  25044-3 0  9996
2 25419  44.9963  74.0580 0003889  35.1058 325.0046 14.38959825407311
ORBCOMM FM13            
1 25420U 98046H   25190.80618968  .00000543  00000+0  22575-3 0  9998
2 25420  44.9978  77.0044 0005966  28.2406 331.8764 14.37708618407622
ORBCOMM FM21            
1 25475U 98053A   25189.63608331  .00000470  00000+0  20314-3 0  9996
2 25475  45.0070 167.9166 0003575 309.4689  50.5843 14.37378755400331
ORBCOMM FM22            
1 25476U 98053B   25189.37969392  .00000644  00000+0  25554-3 0  9999
2 25476  45.0062 163.8121 0005334 318.1865  41.8575 14.38424706400320
ORBCOMM FM23            
1 25477U 98053C   25190.88498821  .00000427  00000+0  18804-3 0  9991
2 25477  45.0069 164.0932 0004503 317.2321  42.8176 14.37564872400972
